{"type": "FeatureCollection", "features": [ {"type": "Feature", "properties": {"norad_id": 66806, "name": "STARLINK-36069", "group": "last-30-days", "lat": -33.05653266123472, "lon": -179.56829978598765, "alt_km": 346.260016610443, "timestamp": "2025-12-17T04:57:43.203844+00:00", "meta": {"OBJECT_NAME": "STARLINK-36069", "OBJECT_ID": "2025-278R", "EPOCH": "2025-12-16T22:00:03.000096", "MEAN_MOTION": 15.75002347, "ECCENTRICITY": 0.00019902, "INCLINATION": 42.9987, "RA_OF_ASC_NODE": 226.4947, "ARG_OF_PERICENTER": 275.0015, "MEAN_ANOMALY": 185.2927, "EPHEMERIS_TYPE": 0, "CLASSIFICATION_TYPE": "U", "NORAD_CAT_ID": 66806, "ELEMENT_SET_NO": 999, "REV_AT_EPOCH": 342, "BSTAR": 0.0003333949, "MEAN_MOTION_DOT": 0.00050964, "MEAN_MOTION_DDOT": 0}, "tle": {"line1": "1 66806U 25278R   25350.91670139  .00050964  00000+0  33339-3 0  9998", "line2": "2 66806  42.9987 226.4947 0001990 275.0015 185.2927 15.75002347  3427"}}, "geometry": {"type": "Point", "coordinates": [-179.56829978598765, -33.05653266123472]}}, {"type": "Feature", "properties": {"norad_id": 66807, "name": "STARLINK-36000", "group": "last-30-days", "lat": -30.12653490953163, "lon": -173.79939923452625, "alt_km": 346.5960951539637, "timestamp": "2025-12-17T04:57:43.203854+00:00", "meta": {"OBJECT_NAME": "STARLINK-36000", "OBJECT_ID": "2025-278S", "EPOCH": "2025-12-16T22:00:03.000096", "MEAN_MOTION": 15.75001468, "ECCENTRICITY": 0.00014745, "INCLINATION": 42.9986, "RA_OF_ASC_NODE": 226.4801, "ARG_OF_PERICENTER": 260.0836, "MEAN_ANOMALY": 205.9437, "EPHEMERIS_TYPE": 0, "CLASSIFICATION_TYPE": "U", "NORAD_CAT_ID": 66807, "ELEMENT_SET_NO": 999, "REV_AT_EPOCH": 368, "BSTAR": 0.000406348, "MEAN_MOTION_DOT": 0.000623, "MEAN_MOTION_DDOT": 0}, "tle": {"line1": "1 66807U 25278S   25350.91670139  .00062300  00000+0  40635-3 0  9993", "line2": "2 66807  42.9986 226.4801 0001474 260.0836 205.9437 15.75001468  3685"}}, "geometry": {"type": "Point", "coordinates": [-173.79939923452625, -30.12653490953163]}}, {"type": "Feature", "properties": {"norad_id": 66808, "name": "STARLINK-36071", "group": "last-30-days", "lat": -29.077482022210752, "lon": -171.9247650503586, "alt_km": 346.49162297800285, "timestamp": "2025-12-17T04:57:43.203863+00:00", "meta": {"OBJECT_NAME": "STARLINK-36071", "OBJECT_ID": "2025-278T", "EPOCH": "2025-12-16T22:00:03.000096", "MEAN_MOTION": 15.75046481, "ECCENTRICITY": 0.00016469, "INCLINATION": 42.9987, "RA_OF_ASC_NODE": 226.4753, "ARG_OF_PERICENTER": 260.382, "MEAN_ANOMALY": 207.5661, "EPHEMERIS_TYPE": 0, "CLASSIFICATION_TYPE": "U", "NORAD_CAT_ID": 66808, "ELEMENT_SET_NO": 999, "REV_AT_EPOCH": 363, "BSTAR": -0.00015232025, "MEAN_MOTION_DOT": -0.00023817, "MEAN_MOTION_DDOT": 0}, "tle": {"line1": "1 66808U 25278T   25350.91670139 -.00023817  00000+0 -15232-3 0  9991", "line2": "2 66808  42.9987 226.4753 0001646 260.3820 207.5661 15.75046481  3636"}}, "geometry": {"type": "Point", "coordinates": [-171.9247650503586, -29.077482022210752]}}, {"type": "Feature", "properties": {"norad_id": 66809, "name": "STARLINK-35979", "group": "last-30-days", "lat": -25.834132220715336, "lon": -166.60466947414534, "alt_km": 346.09152267423906, "timestamp": "2025-12-17T04:57:43.203874+00:00", "meta": {"OBJECT_NAME": "STARLINK-35979", "OBJECT_ID": "2025-278U", "EPOCH": "2025-12-16T22:00:03.000096", "MEAN_MOTION": 15.75018572, "ECCENTRICITY": 0.00019044, "INCLINATION": 42.9984, "RA_OF_ASC_NODE": 226.4609, "ARG_OF_PERICENTER": 270.7152, "MEAN_ANOMALY": 202.9906, "EPHEMERIS_TYPE": 0, "CLASSIFICATION_TYPE": "U", "NORAD_CAT_ID": 66809, "ELEMENT_SET_NO": 999, "REV_AT_EPOCH": 363, "BSTAR": 0.00012996809, "MEAN_MOTION_DOT": 0.00019515, "MEAN_MOTION_DDOT": 0}, "tle": {"line1": "1 66809U 25278U   25350.91670139  .00019515  00000+0  12997-3 0  9995", "line2": "2 66809  42.9984 226.4609 0001904 270.7152 202.9906 15.75018572  3635"}}, "geometry": {"type": "Point", "coordinates": [-166.60466947414534, -25.834132220715336]}}, {"type": "Feature", "properties": {"norad_id": 66810, "name": "STARLINK-36046", "group": "last-30-days", "lat": -28.02098518371871, "lon": -170.11892640056112, "alt_km": 346.252090531093, "timestamp": "2025-12-17T04:57:43.203883+00:00", "meta": {"OBJECT_NAME": "STARLINK-36046", "OBJECT_ID": "2025-278V", "EPOCH": "2025-12-16T22:00:03.000096", "MEAN_MOTION": 15.75023685, "ECCENTRICITY": 0.00017714, "INCLINATION": 42.9986, "RA_OF_ASC_NODE": 226.4708, "ARG_OF_PERICENTER": 269.5749, "MEAN_ANOMALY": 200.296, "EPHEMERIS_TYPE": 0, "CLASSIFICATION_TYPE": "U", "NORAD_CAT_ID": 66810, "ELEMENT_SET_NO": 999, "REV_AT_EPOCH": 340, "BSTAR": 0.00012423692, "MEAN_MOTION_DOT": 0.00018636, "MEAN_MOTION_DDOT": 0}, "tle": {"line1": "1 66810U 25278V   25350.91670139  .00018636  00000+0  12424-3 0  9995", "line2": "2 66810  42.9986 226.4708 0001771 269.5749 200.2960 15.75023685  3406"}}, "geometry": {"type": "Point", "coordinates": [-170.11892640056112, -28.02098518371871]}}, {"type": "Feature", "properties": {"norad_id": 66811, "name": "STARLINK-36045", "group": "last-30-days", "lat": -26.940179801201857, "lon": -168.34794193056467, "alt_km": 346.2686510874928, "timestamp": "2025-12-17T04:57:43.203892+00:00", "meta": {"OBJECT_NAME": "STARLINK-36045", "OBJECT_ID": "2025-278W", "EPOCH": "2025-12-16T22:00:03.000096", "MEAN_MOTION": 15.75026047, "ECCENTRICITY": 0.00014448, "INCLINATION": 42.9983, "RA_OF_ASC_NODE": 226.4656, "ARG_OF_PERICENTER": 277.8915, "MEAN_ANOMALY": 193.8963, "EPHEMERIS_TYPE": 0, "CLASSIFICATION_TYPE": "U", "NORAD_CAT_ID": 66811, "ELEMENT_SET_NO": 999, "REV_AT_EPOCH": 363, "BSTAR": 6.6444891e-05, "MEAN_MOTION_DOT": 9.735e-05, "MEAN_MOTION_DDOT": 0}, "tle": {"line1": "1 66811U 25278W   25350.91670139  .00009735  00000+0  66445-4 0  9999", "line2": "2 66811  42.9983 226.4656 0001444 277.8915 193.8963 15.75026047  3630"}}, "geometry": {"type": "Point", "coordinates": [-168.34794193056467, -26.940179801201857]}}, {"type": "Feature", "properties": {"norad_id": 66812, "name": "STARLINK-36054", "group": "last-30-days", "lat": -24.70361986050701, "lon": -164.8888252722088, "alt_km": 346.07953079628805, "timestamp": "2025-12-17T04:57:43.203901+00:00", "meta": {"OBJECT_NAME": "STARLINK-36054", "OBJECT_ID": "2025-278X", "EPOCH": "2025-12-16T22:00:03.000096", "MEAN_MOTION": 15.75026586, "ECCENTRICITY": 0.00019584, "INCLINATION": 42.9984, "RA_OF_ASC_NODE": 226.4557, "ARG_OF_PERICENTER": 266.7564, "MEAN_ANOMALY": 208.8672, "EPHEMERIS_TYPE": 0, "CLASSIFICATION_TYPE": "U", "NORAD_CAT_ID": 66812, "ELEMENT_SET_NO": 999, "REV_AT_EPOCH": 363, "BSTAR": 7.0583838e-05, "MEAN_MOTION_DOT": 0.00010372, "MEAN_MOTION_DDOT": 0}, "tle": {"line1": "1 66812U 25278X   25350.91670139  .00010372  00000+0  70584-4 0  9998", "line2": "2 66812  42.9984 226.4557 0001958 266.7564 208.8672 15.75026586  3631"}}, "geometry": {"type": "Point", "coordinates": [-164.8888252722088, -24.70361986050701]}}, {"type": "Feature", "properties": {"norad_id": 66813, "name": "STARLINK-36042", "group": "last-30-days", "lat": -23.562183383781353, "lon": -163.2161328716293, "alt_km": 345.89723466507894, "timestamp": "2025-12-17T04:57:43.203910+00:00", "meta": {"OBJECT_NAME": "STARLINK-36042", "OBJECT_ID": "2025-278Y", "EPOCH": "2025-12-16T22:00:03.000096", "MEAN_MOTION": 15.75022166, "ECCENTRICITY": 0.00018444, "INCLINATION": 42.9986, "RA_OF_ASC_NODE": 226.4504, "ARG_OF_PERICENTER": 277.1176, "MEAN_ANOMALY": 200.4225, "EPHEMERIS_TYPE": 0, "CLASSIFICATION_TYPE": "U", "NORAD_CAT_ID": 66813, "ELEMENT_SET_NO": 999, "REV_AT_EPOCH": 363, "BSTAR": 0.00013108298, "MEAN_MOTION_DOT": 0.0001969, "MEAN_MOTION_DDOT": 0}, "tle": {"line1": "1 66813U 25278Y   25350.91670139  .00019690  00000+0  13108-3 0  9999", "line2": "2 66813  42.9986 226.4504 0001844 277.1176 200.4225 15.75022166  3637"}}, "geometry": {"type": "Point", "coordinates": [-163.2161328716293, -23.562183383781353]}}, {"type": "Feature", "properties": {"norad_id": 66814, "name": "STARLINK-35984", "group": "last-30-days", "lat": -16.358998789165035, "lon": -153.70108350517899, "alt_km": 345.60391009962404, "timestamp": "2025-12-17T04:57:43.203919+00:00", "meta": {"OBJECT_NAME": "STARLINK-35984", "OBJECT_ID": "2025-278Z", "EPOCH": "2025-12-16T22:00:03.000096", "MEAN_MOTION": 15.75021237, "ECCENTRICITY": 0.00018869, "INCLINATION": 42.9986, "RA_OF_ASC_NODE": 226.4215, "ARG_OF_PERICENTER": 269.7272, "MEAN_ANOMALY": 219.3159, "EPHEMERIS_TYPE": 0, "CLASSIFICATION_TYPE": "U", "NORAD_CAT_ID": 66814, "ELEMENT_SET_NO": 999, "REV_AT_EPOCH": 371, "BSTAR": 0.00010763925, "MEAN_MOTION_DOT": 0.00016076, "MEAN_MOTION_DDOT": 0}, "tle": {"line1": "1 66814U 25278Z   25350.91670139  .00016076  00000+0  10764-3 0  9990", "line2": "2 66814  42.9986 226.4215 0001886 269.7272 219.3159 15.75021237  3719"}}, "geometry": {"type": "Point", "coordinates": [-153.70108350517899, -16.358998789165035]}}, {"type": "Feature", "properties": {"norad_id": 66815, "name": "STARLINK-35985", "group": "last-30-days", "lat": -17.593291360422125, "lon": -155.22956405711676, "alt_km": 345.70639021036095, "timestamp": "2025-12-17T04:57:43.203953+00:00", "meta": {"OBJECT_NAME": "STARLINK-35985", "OBJECT_ID": "2025-278AA", "EPOCH": "2025-12-16T22:00:03.000096", "MEAN_MOTION": 15.75029854, "ECCENTRICITY": 0.00018523, "INCLINATION": 42.9987, "RA_OF_ASC_NODE": 226.4258, "ARG_OF_PERICENTER": 269.5142, "MEAN_ANOMALY": 217.6095, "EPHEMERIS_TYPE": 0, "CLASSIFICATION_TYPE": "U", "NORAD_CAT_ID": 66815, "ELEMENT_SET_NO": 999, "REV_AT_EPOCH": 371, "BSTAR": -3.2330092e-05, "MEAN_MOTION_DOT": -5.439e-05, "MEAN_MOTION_DDOT": 0}, "tle": {"line1": "1 66815U 25278AA  25350.91670139 -.00005439  00000+0 -32330-4 0  9998", "line2": "2 66815  42.9987 226.4258 0001852 269.5142 217.6095 15.75029854  3718"}}, "geometry": {"type": "Point", "coordinates": [-155.22956405711676, -17.593291360422125]}}]}